NORAD_CAT_ID,OBJECT_NAME,OBJECT_TYPE,EPOCH,MEAN_MOTION,ECCENTRICITY,INCLINATION,RA_OF_ASC_NODE,ARG_OF_PERICENTER,MEAN_ANOMALY,BSTAR,MEAN_MOTION_DOT,MEAN_MOTION_DDOT,TLE_LINE0,TLE_LINE1,TLE_LINE2,SEMIMAJOR_AXIS,PERIOD,APOGEE,PERIGEE,DECAYED
56800.0,STARLINK-6036,PAYLOAD,2024-06-25 22:02:32,14.98355785,0.0002614,70.0003,112.2153,261.1643,98.9221,-0.00034255,-4.18e-05,0.0,0 STARLINK-6036,1 56800U 23078AK  24177.91843335 -.00004180  00000-0 -34255-3 0  9993,2 56800  70.0003 112.2153 0002614 261.1643  98.9221 14.98355785 59541,6950.113,96.105,573.795,570.161,0.0
56800.0,STARLINK-6036,PAYLOAD,2024-06-26 04:27:05,14.98318596,0.0002453,70.0005,111.5421,260.6146,99.4736,0.00037379,4.368e-05,0.0,0 STARLINK-6036,1 56800U 23078AK  24178.18547563  .00004368  00000-0  37379-3 0  9993,2 56800  70.0005 111.5421 0002453 260.6146  99.4736 14.98318596 59845,6950.228,96.108,573.798,570.388,0.0
56800.0,STARLINK-6036,PAYLOAD,2024-06-26 06:03:12,14.98355918,0.0002545,70.0005,111.3737,260.8337,99.2534,-0.00025823,-3.175e-05,0.0,0 STARLINK-6036,1 56800U 23078AK  24178.25222630 -.00003175  00000-0 -25823-3 0  9994,2 56800  70.0005 111.3737 0002545 260.8337  99.2534 14.98355918 59853,6950.113,96.105,573.747,570.209,0.0
56800.0,STARLINK-6036,PAYLOAD,2024-06-27 04:29:06,14.98327655,0.0002449,70.001,109.0176,258.1135,101.975,1.9824e-05,1.44e-06,0.0,0 STARLINK-6036,1 56800U 23078AK  24179.18687694  .00000144  00000-0  19824-4 0  9998,2 56800  70.0010 109.0176 0002449 258.1135 101.9750 14.98327655 59992,6950.2,96.107,573.767,570.363,0.0
56800.0,STARLINK-6036,PAYLOAD,2024-06-27 22:06:35,14.98324887,0.0002852,70.001,107.1664,273.2618,86.8215,-5.96e-05,-8.04e-06,0.0,0 STARLINK-6036,1 56800U 23078AK  24179.92124186 -.00000804  00000-0 -59600-4 0  9993,2 56800  70.0010 107.1664 0002852 273.2618  86.8215 14.98324887 59840,6950.209,96.107,574.056,570.092,0.0
56800.0,STARLINK-6036,PAYLOAD,2024-06-28 04:31:07,14.98327553,0.0002602,70.0008,106.4924,266.3069,93.7793,-6.8476e-05,-9.1e-06,0.0,0 STARLINK-6036,1 56800U 23078AK  24180.18828092 -.00000910  00000-0 -68476-4 0  9999,2 56800  70.0008 106.4924 0002602 266.3069  93.7793 14.98327553 60140,6950.2,96.107,573.874,570.257,0.0
56800.0,STARLINK-6036,PAYLOAD,2024-06-28 12:31:47,14.98339318,0.0002575,70.0009,105.651,260.6859,99.4009,-0.00026753,-3.284e-05,0.0,0 STARLINK-6036,1 56800U 23078AK  24180.52207807 -.00003284  00000-0 -26753-3 0  9990,2 56800  70.0009 105.6510 0002575 260.6859  99.4009 14.98339318 59936,6950.164,96.106,573.819,570.239,0.0
56800.0,STARLINK-6036,PAYLOAD,2024-06-28 22:08:35,14.98332112,0.0002956,70.0,104.6383,269.1573,90.9248,7.6167e-06,-2e-08,0.0,0 STARLINK-6036,1 56800U 23078AK  24180.92263642 -.00000002  00000-0  76167-5 0  9993,2 56800  70.0000 104.6383 0002956 269.1573  90.9248 14.98332112 59996,6950.186,96.107,574.106,569.997,0.0
56800.0,STARLINK-6036,PAYLOAD,2024-06-29 04:33:07,14.98339988,0.0002948,70.0001,103.9649,268.8428,91.2393,9.2638e-05,1.013e-05,0.0,0 STARLINK-6036,1 56800U 23078AK  24181.18966816  .00001013  00000-0  92638-4 0  9997,2 56800  70.0001 103.9649 0002948 268.8428  91.2393 14.98339988 60298,6950.162,96.106,574.076,569.978,0.0
56800.0,STARLINK-6036,PAYLOAD,2024-06-29 12:33:48,14.98326588,0.0002923,69.9994,103.1236,273.0477,87.0347,-1.039e-07,-9.4e-07,0.0,0 STARLINK-6036,1 56800U 23078AK  24181.52347912 -.00000094  00000-0 -10390-6 0  9992,2 56800  69.9994 103.1236 0002923 273.0477  87.0347 14.98326588 60345,6950.203,96.107,574.1,570.037,0.0
56800.0,STARLINK-6036,PAYLOAD,2024-06-29 18:58:21,14.98320467,0.0002198,70.0003,102.4522,279.0961,80.9949,3.1935e-05,2.88e-06,0.0,0 STARLINK-6036,1 56800U 23078AK  24181.79052617  .00000288  00000-0  31935-4 0  9995,2 56800  70.0003 102.4522 0002198 279.0961  80.9949 14.98320467 60381,6950.222,96.108,573.615,570.56,0.0
56800.0,STARLINK-6036,PAYLOAD,2024-06-29 22:10:38,14.98311357,0.0002811,69.9987,102.1122,268.9251,91.1586,-2.1602e-05,-3.51e-06,0.0,0 STARLINK-6036,1 56800U 23078AK  24181.92405233 -.00000351  00000-0 -21602-4 0  9999,2 56800  69.9987 102.1122 0002811 268.9251  91.1586 14.98311357 60146,6950.251,96.108,574.069,570.162,0.0
56800.0,STARLINK-6036,PAYLOAD,2024-06-30 04:35:10,14.98315067,0.0003103,69.9998,101.443,270.4416,89.6387,-8.947e-05,-1.16e-05,0.0,0 STARLINK-6036,1 56800U 23078AK  24182.19109471 -.00001160  00000-0 -89470-4 0  9990,2 56800  69.9998 101.4430 0003103 270.4416  89.6387 14.98315067 60444,6950.239,96.108,574.261,569.947,0.0
56800.0,STARLINK-6036,PAYLOAD,2024-06-30 12:35:50,14.98324137,0.0002974,69.9999,100.5999,269.4472,90.6346,2.4302e-05,1.97e-06,0.0,0 STARLINK-6036,1 56800U 23078AK  24182.52488791  .00000197  00000-0  24302-4 0  9992,2 56800  69.9999 100.5999 0002974 269.4472  90.6346 14.98324137 60232,6950.211,96.107,574.143,570.009,0.0
56800.0,STARLINK-6036,PAYLOAD,2024-06-30 20:36:30,14.98332292,0.0003001,69.9999,99.7581,269.7503,90.3312,4.9214e-05,4.94e-06,0.0,0 STARLINK-6036,1 56800U 23078AK  24182.85868255  .00000494  00000-0  49214-4 0  9994,2 56800  69.9999  99.7581 0003001 269.7503  90.3312 14.98332292 60543,6950.186,96.107,574.137,569.965,0.0
56800.0,STARLINK-6036,PAYLOAD,2024-06-30 22:12:38,14.98332666,0.000302,69.9998,99.5897,269.719,90.3622,5.2107e-05,5.29e-06,0.0,0 STARLINK-6036,1 56800U 23078AK  24182.92544218  .00000529  00000-0  52107-4 0  9996,2 56800  69.9998  99.5897 0003020 269.7190  90.3622 14.98332666 60294,6950.185,96.107,574.149,569.951,0.0
56800.0,STARLINK-6036,PAYLOAD,2024-07-01 04:37:09,14.9834652,0.000304,69.9998,98.9165,269.242,90.8391,0.00010113,1.114e-05,0.0,0 STARLINK-6036,1 56800U 23078AK  24183.19247137  .00001114  00000-0  10113-3 0  9997,2 56800  69.9998  98.9165 0003040 269.2420  90.8391 14.98346520 60593,6950.142,96.106,574.12,569.894,0.0
56800.0,STARLINK-6036,PAYLOAD,2024-07-01 20:38:31,14.98322853,0.0002865,70.0003,97.2331,273.0148,87.0683,0.0002325,2.682e-05,0.0,0 STARLINK-6036,1 56800U 23078AK  24183.86008151  .00002682  00000-0  23250-3 0  9999,2 56800  70.0003  97.2331 0002865 273.0148  87.0683 14.98322853 60690,6950.215,96.107,574.071,570.089,0.0
56800.0,STARLINK-6036,PAYLOAD,2024-07-01 22:14:39,14.98323789,0.0002828,70.0002,97.0648,273.0787,87.0048,0.00021842,2.514e-05,0.0,0 STARLINK-6036,1 56800U 23078AK  24183.92684163  .00002514  00000-0  21842-3 0  9998,2 56800  70.0002  97.0648 0002828 273.0787  87.0048 14.98323789 60443,6950.212,96.107,574.043,570.112,0.0
56800.0,STARLINK-6036,PAYLOAD,2024-07-02 11:03:42,14.98365438,0.0002776,70.0012,95.7187,273.6115,86.4726,-0.00051241,-6.207e-05,0.0,0 STARLINK-6036,1 56800U 23078AK  24184.46091064 -.00006207  00000-0 -51241-3 0  9991,2 56800  70.0012  95.7187 0002776 273.6115  86.4726 14.98365438 60780,6950.083,96.105,573.878,570.019,0.0
56800.0,STARLINK-6036,PAYLOAD,2024-07-02 20:40:31,14.98333608,0.0002839,70.0012,94.7094,268.9502,91.1332,-1.5307e-05,-2.76e-06,0.0,0 STARLINK-6036,1 56800U 23078AK  24184.86148047 -.00000276  00000-0 -15307-4 0  9993,2 56800  70.0012  94.7094 0002839 268.9502  91.1332 14.98333608 60840,6950.182,96.107,574.02,570.074,0.0
56800.0,STARLINK-6036,PAYLOAD,2024-07-02 22:16:40,14.98333683,0.0002812,70.0006,94.5404,268.8205,91.2632,-5.1172e-05,-7.04e-06,0.0,0 STARLINK-6036,1 56800U 23078AK  24184.92824094 -.00000704  00000-0 -51172-4 0  9999,2 56800  70.0006  94.5404 0002812 268.8205  91.2632 14.98333683 60595,6950.182,96.107,574.001,570.092,0.0
56800.0,STARLINK-6036,PAYLOAD,2024-07-03 20:42:32,14.98330562,0.0002813,70.0005,92.1847,270.4031,89.6806,-4.1891e-05,-5.93e-06,0.0,0 STARLINK-6036,1 56800U 23078AK  24185.86287895 -.00000593  00000-0 -41891-4 0  9998,2 56800  70.0005  92.1847 0002813 270.4031  89.6806 14.98330562 60997,6950.191,96.107,574.011,570.101,0.0
56800.0,STARLINK-6036,PAYLOAD,2024-07-03 22:18:40,14.98332696,0.0003112,70.0007,92.0167,272.7976,87.2827,-8.2713e-05,-1.08e-05,0.0,0 STARLINK-6036,1 56800U 23078AK  24185.92963851 -.00001080  00000-0 -82713-4 0  9998,2 56800  70.0007  92.0167 0003112 272.7976  87.2827 14.98332696 60749,6950.185,96.107,574.212,569.887,0.0
56800.0,STARLINK-6036,PAYLOAD,2024-07-04 11:07:45,14.98327056,0.0003274,70.0006,90.6695,255.7657,104.3138,-2.2328e-05,-3.59e-06,0.0,0 STARLINK-6036,1 56800U 23078AK  24186.46371778 -.00000359  00000-0 -22328-4 0  9993,2 56800  70.0006  90.6695 0003274 255.7657 104.3138 14.98327056 60823,6950.202,96.107,574.342,569.791,0.0
56800.0,STARLINK-6036,PAYLOAD,2024-07-04 20:44:33,14.98327485,0.000292,70.0004,89.6597,268.3503,91.7321,5.9656e-05,6.19e-06,0.0,0 STARLINK-6036,1 56800U 23078AK  24186.86427703  .00000619  00000-0  59656-4 0  9998,2 56800  70.0004  89.6597 0002920 268.3503  91.7321 14.98327485 61142,6950.201,96.107,574.095,570.036,0.0
56800.0,STARLINK-6036,PAYLOAD,2024-07-04 22:20:41,14.9832823,0.0002875,70.0005,89.4914,268.5778,91.5052,4.7721e-05,4.76e-06,0.0,0 STARLINK-6036,1 56800U 23078AK  24186.93103704  .00000476  00000-0  47721-4 0  9999,2 56800  70.0005  89.4914 0002875 268.5778  91.5052 14.98328230 60898,6950.198,96.107,574.062,570.065,0.0
56800.0,STARLINK-6036,PAYLOAD,2024-07-05 11:09:45,14.98331531,0.0002921,69.9999,88.1429,265.6467,94.4358,-2.1407e-05,-3.48e-06,0.0,0 STARLINK-6036,1 56800U 23078AK  24187.46511538 -.00000348  00000-0 -21407-4 0  9999,2 56800  69.9999  88.1429 0002921 265.6467  94.4358 14.98331531 60977,6950.188,96.107,574.083,570.023,0.0
56800.0,STARLINK-6036,PAYLOAD,2024-07-05 20:46:34,14.98325709,0.0002893,69.9998,87.1331,267.321,92.7618,4.1044e-05,3.97e-06,0.0,0 STARLINK-6036,1 56800U 23078AK  24187.86567795  .00000397  00000-0  41044-4 0  9990,2 56800  69.9998  87.1331 0002893 267.3210  92.7618 14.98325709 61296,6950.206,96.107,574.082,570.06,0.0
56800.0,STARLINK-6036,PAYLOAD,2024-07-05 22:22:42,14.98319061,0.0002874,69.9998,86.9644,267.7574,92.3256,0.00015174,1.717e-05,0.0,0 STARLINK-6036,1 56800U 23078AK  24187.93244019  .00001717  00000-0  15174-3 0  9990,2 56800  69.9998  86.9644 0002874 267.7574  92.3256 14.98319061 61047,6950.227,96.108,574.089,570.094,0.0
